STARLINK-37151          
1 68290U 26055AE  26097.76573247  .00172212  00000+0  85608-3 0  9992
2 68290  53.1583 191.3311 0001208  68.5669 291.5482 15.80940956  4284
STRIX-6                 
1 68291U 26056A   26097.04145950  .00004769  00000+0  40176-3 0  9993
2 68291  50.2836 325.9876 0016453 331.1782  28.8257 14.99723425  2590
STARLINK-37107          
1 68294U 26057A   26097.83334490  .00054014  00000+0  28101-3 0  9995
2 68294  97.2832 221.6608 0001552 110.1278  50.0664 15.80813375  3847
STARLINK-37147          
1 68295U 26057B   26097.83334490 -.00010025  00000+0 -51602-4 0  9995
2 68295  97.2834 221.6611 0001480 108.2174  56.2511 15.80837579  3837
STARLINK-37142          
1 68296U 26057C   26097.83334490  .00030101  00000+0  15734-3 0  9996
2 68296  97.2834 221.6660 0001630 119.0520  58.2348 15.80815532  3727
STARLINK-37115          
1 68297U 26057D   26097.83334490  .00056573  00000+0  29431-3 0  9997
2 68297  97.2837 221.6642 0001719  97.4815  75.5554 15.80805338  3729
STARLINK-36355          
1 68298U 26057E   26097.83334490 -.00015345  00000+0 -79458-4 0  9997
2 68298  97.2835 221.6627 0001331 107.7202  61.0340 15.80830660  3994
STARLINK-37118          
1 68299U 26057F   26097.83334490  .00088795  00000+0  46045-3 0  9990
2 68299  97.2837 221.6687 0001517 116.1360  69.7219 15.80775808  3833
STARLINK-36875          
1 68300U 26057G   26097.83334490 -.00002758  00000+0 -13664-4 0  9992
2 68300  97.2834 221.6669 0001399 115.5454  66.0380 15.80813977  3893
STARLINK-37099          
1 68301U 26057H   26097.83334490 -.00009178  00000+0 -47180-4 0  9996
2 68301  97.2835 221.6705 0001284  87.7400 102.3721 15.80837340  3725
STARLINK-37007          
1 68302U 26057J   26097.83334490  .00058225  00000+0  30281-3 0  9995
2 68302  97.2836 221.6734 0001340 113.1760  85.4819 15.80807099  3946
STARLINK-36300          
1 68303U 26057K   26097.83334490  .00152442  00000+0  78510-3 0  9999
2 68303  97.2837 221.6724 0001040  70.1718 124.2593 15.80750772  3990
STARLINK-36849          
1 68304U 26057L   26097.83334490  .00065629  00000+0  34094-3 0  9999
2 68304  97.2838 221.6765 0001159 107.3879  95.5672 15.80806678  3893
STARLINK-36277          
1 68305U 26057M   26097.83334490  .00036336  00000+0  24356-3 0  9993
2 68305  97.2839 221.6712 0001671  85.8918 108.4602 15.75177997  4055
STARLINK-36307          
1 68306U 26057N   26097.83334490  .00047812  00000+0  24917-3 0  9998
2 68306  97.2836 221.6776 0000969  92.8657 114.3478 15.80799869  3993
