[{"OBJECT_NAME":"STARLINK-37151","OBJECT_ID":"2026-055AE","EPOCH":"2026-04-07T18:22:39.285408","MEAN_MOTION":15.80940956,"ECCENTRICITY":0.0001208,"INCLINATION":53.1583,"RA_OF_ASC_NODE":191.3311,"ARG_OF_PERICENTER":68.5669,"MEAN_ANOMALY":291.5482,"EPHEMERIS_TYPE":0,"CLASSIFICATION_TYPE":"U","NORAD_CAT_ID":68290,"ELEMENT_SET_NO":999,"REV_AT_EPOCH":428,"BSTAR":0.00085608,"MEAN_MOTION_DOT":0.00172212,"MEAN_MOTION_DDOT":0},{"OBJECT_NAME":"STRIX-6","OBJECT_ID":"2026-056A","EPOCH":"2026-04-07T00:59:42.100800","MEAN_MOTION":14.99723425,"ECCENTRICITY":0.00164535,"INCLINATION":50.2836,"RA_OF_ASC_NODE":325.9876,"ARG_OF_PERICENTER":331.1782,"MEAN_ANOMALY":28.8257,"EPHEMERIS_TYPE":0,"CLASSIFICATION_TYPE":"U","NORAD_CAT_ID":68291,"ELEMENT_SET_NO":999,"REV_AT_EPOCH":259,"BSTAR":0.00040176092,"MEAN_MOTION_DOT":4.769e-5,"MEAN_MOTION_DDOT":0},{"OBJECT_NAME":"STARLINK-37107","OBJECT_ID":"2026-057A","EPOCH":"2026-04-07T20:00:00.999360","MEAN_MOTION":15.80813375,"ECCENTRICITY":0.0001552,"INCLINATION":97.2832,"RA_OF_ASC_NODE":221.6608,"ARG_OF_PERICENTER":110.1278,"MEAN_ANOMALY":50.0664,"EPHEMERIS_TYPE":0,"CLASSIFICATION_TYPE":"U","NORAD_CAT_ID":68294,"ELEMENT_SET_NO":999,"REV_AT_EPOCH":384,"BSTAR":0.00028101,"MEAN_MOTION_DOT":0.00054014,"MEAN_MOTION_DDOT":0},{"OBJECT_NAME":"STARLINK-37147","OBJECT_ID":"2026-057B","EPOCH":"2026-04-07T20:00:00.999360","MEAN_MOTION":15.80837579,"ECCENTRICITY":0.000148,"INCLINATION":97.2834,"RA_OF_ASC_NODE":221.6611,"ARG_OF_PERICENTER":108.2174,"MEAN_ANOMALY":56.2511,"EPHEMERIS_TYPE":0,"CLASSIFICATION_TYPE":"U","NORAD_CAT_ID":68295,"ELEMENT_SET_NO":999,"REV_AT_EPOCH":383,"BSTAR":-5.1602e-5,"MEAN_MOTION_DOT":-0.00010025,"MEAN_MOTION_DDOT":0},{"OBJECT_NAME":"STARLINK-37142","OBJECT_ID":"2026-057C","EPOCH":"2026-04-07T20:00:00.999360","MEAN_MOTION":15.80815532,"ECCENTRICITY":0.000163,"INCLINATION":97.2834,"RA_OF_ASC_NODE":221.666,"ARG_OF_PERICENTER":119.052,"MEAN_ANOMALY":58.2348,"EPHEMERIS_TYPE":0,"CLASSIFICATION_TYPE":"U","NORAD_CAT_ID":68296,"ELEMENT_SET_NO":999,"REV_AT_EPOCH":372,"BSTAR":0.00015734,"MEAN_MOTION_DOT":0.00030101,"MEAN_MOTION_DDOT":0},{"OBJECT_NAME":"STARLINK-37115","OBJECT_ID":"2026-057D","EPOCH":"2026-04-07T20:00:00.999360","MEAN_MOTION":15.80805338,"ECCENTRICITY":0.0001719,"INCLINATION":97.2837,"RA_OF_ASC_NODE":221.6642,"ARG_OF_PERICENTER":97.4815,"MEAN_ANOMALY":75.5554,"EPHEMERIS_TYPE":0,"CLASSIFICATION_TYPE":"U","NORAD_CAT_ID":68297,"ELEMENT_SET_NO":999,"REV_AT_EPOCH":372,"BSTAR":0.00029431,"MEAN_MOTION_DOT":0.00056573,"MEAN_MOTION_DDOT":0},{"OBJECT_NAME":"STARLINK-36355","OBJECT_ID":"2026-057E","EPOCH":"2026-04-07T20:00:00.999360","MEAN_MOTION":15.8083066,"ECCENTRICITY":0.0001331,"INCLINATION":97.2835,"RA_OF_ASC_NODE":221.6627,"ARG_OF_PERICENTER":107.7202,"MEAN_ANOMALY":61.034,"EPHEMERIS_TYPE":0,"CLASSIFICATION_TYPE":"U","NORAD_CAT_ID":68298,"ELEMENT_SET_NO":999,"REV_AT_EPOCH":399,"BSTAR":-7.9458e-5,"MEAN_MOTION_DOT":-0.00015345,"MEAN_MOTION_DDOT":0},{"OBJECT_NAME":"STARLINK-37118","OBJECT_ID":"2026-057F","EPOCH":"2026-04-07T20:00:00.999360","MEAN_MOTION":15.80775808,"ECCENTRICITY":0.0001517,"INCLINATION":97.2837,"RA_OF_ASC_NODE":221.6687,"ARG_OF_PERICENTER":116.136,"MEAN_ANOMALY":69.7219,"EPHEMERIS_TYPE":0,"CLASSIFICATION_TYPE":"U","NORAD_CAT_ID":68299,"ELEMENT_SET_NO":999,"REV_AT_EPOCH":383,"BSTAR":0.00046045,"MEAN_MOTION_DOT":0.00088795,"MEAN_MOTION_DDOT":0},{"OBJECT_NAME":"STARLINK-36875","OBJECT_ID":"2026-057G","EPOCH":"2026-04-07T20:00:00.999360","MEAN_MOTION":15.80813977,"ECCENTRICITY":0.0001399,"INCLINATION":97.2834,"RA_OF_ASC_NODE":221.6669,"ARG_OF_PERICENTER":115.5454,"MEAN_ANOMALY":66.038,"EPHEMERIS_TYPE":0,"CLASSIFICATION_TYPE":"U","NORAD_CAT_ID":68300,"ELEMENT_SET_NO":999,"REV_AT_EPOCH":389,"BSTAR":-1.3664e-5,"MEAN_MOTION_DOT":-2.758e-5,"MEAN_MOTION_DDOT":0},{"OBJECT_NAME":"STARLINK-37099","OBJECT_ID":"2026-057H","EPOCH":"2026-04-07T20:00:00.999360","MEAN_MOTION":15.8083734,"ECCENTRICITY":0.0001284,"INCLINATION":97.2835,"RA_OF_ASC_NODE":221.6705,"ARG_OF_PERICENTER":87.74,"MEAN_ANOMALY":102.3721,"EPHEMERIS_TYPE":0,"CLASSIFICATION_TYPE":"U","NORAD_CAT_ID":68301,"ELEMENT_SET_NO":999,"REV_AT_EPOCH":372,"BSTAR":-4.718e-5,"MEAN_MOTION_DOT":-9.178e-5,"MEAN_MOTION_DDOT":0},{"OBJECT_NAME":"STARLINK-37007","OBJECT_ID":"2026-057J","EPOCH":"2026-04-07T20:00:00.999360","MEAN_MOTION":15.80807099,"ECCENTRICITY":0.000134,"INCLINATION":97.2836,"RA_OF_ASC_NODE":221.6734,"ARG_OF_PERICENTER":113.176,"MEAN_ANOMALY":85.4819,"EPHEMERIS_TYPE":0,"CLASSIFICATION_TYPE":"U","NORAD_CAT_ID":68302,"ELEMENT_SET_NO":999,"REV_AT_EPOCH":394,"BSTAR":0.00030281,"MEAN_MOTION_DOT":0.00058225,"MEAN_MOTION_DDOT":0},{"OBJECT_NAME":"STARLINK-36300","OBJECT_ID":"2026-057K","EPOCH":"2026-04-07T20:00:00.999360","MEAN_MOTION":15.80750772,"ECCENTRICITY":0.000104,"INCLINATION":97.2837,"RA_OF_ASC_NODE":221.6724,"ARG_OF_PERICENTER":70.1718,"MEAN_ANOMALY":124.2593,"EPHEMERIS_TYPE":0,"CLASSIFICATION_TYPE":"U","NORAD_CAT_ID":68303,"ELEMENT_SET_NO":999,"REV_AT_EPOCH":399,"BSTAR":0.0007851,"MEAN_MOTION_DOT":0.00152442,"MEAN_MOTION_DDOT":0},{"OBJECT_NAME":"STARLINK-36849","OBJECT_ID":"2026-057L","EPOCH":"2026-04-07T20:00:00.999360","MEAN_MOTION":15.80806678,"ECCENTRICITY":0.0001159,"INCLINATION":97.2838,"RA_OF_ASC_NODE":221.6765,"ARG_OF_PERICENTER":107.3879,"MEAN_ANOMALY":95.5672,"EPHEMERIS_TYPE":0,"CLASSIFICATION_TYPE":"U","NORAD_CAT_ID":68304,"ELEMENT_SET_NO":999,"REV_AT_EPOCH":389,"BSTAR":0.00034094,"MEAN_MOTION_DOT":0.00065629,"MEAN_MOTION_DDOT":0},{"OBJECT_NAME":"STARLINK-36277","OBJECT_ID":"2026-057M","EPOCH":"2026-04-07T20:00:00.999360","MEAN_MOTION":15.75177997,"ECCENTRICITY":0.0001671,"INCLINATION":97.2839,"RA_OF_ASC_NODE":221.6712,"ARG_OF_PERICENTER":85.8918,"MEAN_ANOMALY":108.4602,"EPHEMERIS_TYPE":0,"CLASSIFICATION_TYPE":"U","NORAD_CAT_ID":68305,"ELEMENT_SET_NO":999,"REV_AT_EPOCH":405,"BSTAR":0.00024356,"MEAN_MOTION_DOT":0.00036336,"MEAN_MOTION_DDOT":0},{"OBJECT_NAME":"STARLINK-36307","OBJECT_ID":"2026-057N","EPOCH":"2026-04-07T20:00:00.999360","MEAN_MOTION":15.80799869,"ECCENTRICITY":9.69e-5,"INCLINATION":97.2836,"RA_OF_ASC_NODE":221.6776,"ARG_OF_PERICENTER":92.8657,"MEAN_ANOMALY":114.3478,"EPHEMERIS_TYPE":0,"CLASSIFICATION_TYPE":"U","NORAD_CAT_ID":68306,"ELEMENT_SET_NO":999,"REV_AT_EPOCH":399,"BSTAR":0.00024917,"MEAN_MOTION_DOT":0.00047812,"MEAN_MOTION_DDOT":0}]
